{"type": "FeatureCollection", "features": [ {"type": "Feature", "properties": {"norad_id": 41556, "name": "ZIYUAN 3-02 (ZY 3-02)", "group": "resource", "lat": -5.253911604662915, "lon": -110.96731731971859, "alt_km": 499.2577031951114, "timestamp": "2025-12-21T16:47:54.386145+00:00", "meta": {"OBJECT_NAME": "ZIYUAN 3-02 (ZY 3-02)", "OBJECT_ID": "2016-033A", "EPOCH": "2025-12-21T12:49:43.944096", "MEAN_MOTION": 15.21169471, "ECCENTRICITY": 0.0011129, "INCLINATION": 97.4036, "RA_OF_ASC_NODE": 69.5552, "ARG_OF_PERICENTER": 213.1908, "MEAN_ANOMALY": 146.863, "EPHEMERIS_TYPE": 0, "CLASSIFICATION_TYPE": "U", "NORAD_CAT_ID": 41556, "ELEMENT_SET_NO": 999, "REV_AT_EPOCH": 53097, "BSTAR": 0.00023887, "MEAN_MOTION_DOT": 5.262e-05, "MEAN_MOTION_DDOT": 0}, "tle": {"line1": "1 41556U 16033A   25355.53453639  .00005262  00000+0  23887-3 0  9997", "line2": "2 41556  97.4036  69.5552 0011129 213.1908 146.8630 15.21169471530971"}}, "geometry": {"type": "Point", "coordinates": [-110.96731731971859, -5.253911604662915]}}, {"type": "Feature", "properties": {"norad_id": 41599, "name": "CARTOSAT-2C", "group": "resource", "lat": 61.32821295610254, "lon": 38.96389496163189, "alt_km": 495.573863355924, "timestamp": "2025-12-21T16:47:54.386156+00:00", "meta": {"OBJECT_NAME": "CARTOSAT-2C", "OBJECT_ID": "2016-040A", "EPOCH": "2025-12-21T11:47:01.125600", "MEAN_MOTION": 15.19191948, "ECCENTRICITY": 0.0011045, "INCLINATION": 97.4758, "RA_OF_ASC_NODE": 52.6514, "ARG_OF_PERICENTER": 35.7676, "MEAN_ANOMALY": 324.4296, "EPHEMERIS_TYPE": 0, "CLASSIFICATION_TYPE": "U", "NORAD_CAT_ID": 41599, "ELEMENT_SET_NO": 999, "REV_AT_EPOCH": 52673, "BSTAR": 0.00031609, "MEAN_MOTION_DOT": 6.593e-05, "MEAN_MOTION_DDOT": 0}, "tle": {"line1": "1 41599U 16040A   25355.49098525  .00006593  00000+0  31609-3 0  9995", "line2": "2 41599  97.4758  52.6514 0011045  35.7676 324.4296 15.19191948526739"}}, "geometry": {"type": "Point", "coordinates": [38.96389496163189, 61.32821295610254]}}, {"type": "Feature", "properties": {"norad_id": 41601, "name": "SKYSAT-C1", "group": "resource", "lat": -10.610803642389492, "lon": -149.10666003932653, "alt_km": 472.8984038232984, "timestamp": "2025-12-21T16:47:54.386166+00:00", "meta": {"OBJECT_NAME": "SKYSAT-C1", "OBJECT_ID": "2016-040C", "EPOCH": "2025-12-21T01:52:04.162944", "MEAN_MOTION": 15.32727522, "ECCENTRICITY": 0.00014088, "INCLINATION": 96.9809, "RA_OF_ASC_NODE": 31.6216, "ARG_OF_PERICENTER": 345.105, "MEAN_ANOMALY": 15.0151, "EPHEMERIS_TYPE": 0, "CLASSIFICATION_TYPE": "U", "NORAD_CAT_ID": 41601, "ELEMENT_SET_NO": 999, "REV_AT_EPOCH": 53055, "BSTAR": 0.00019483176, "MEAN_MOTION_DOT": 6.086e-05, "MEAN_MOTION_DDOT": 0}, "tle": {"line1": "1 41601U 16040C   25355.07782596  .00006086  00000+0  19483-3 0  9994", "line2": "2 41601  96.9809  31.6216 0001408 345.1050  15.0151 15.32727522530552"}}, "geometry": {"type": "Point", "coordinates": [-149.10666003932653, -10.610803642389492]}}, {"type": "Feature", "properties": {"norad_id": 41603, "name": "LAPAN-A3", "group": "resource", "lat": -59.71163323224448, "lon": 5.327954089697286, "alt_km": 472.09809963755833, "timestamp": "2025-12-21T16:47:54.386177+00:00", "meta": {"OBJECT_NAME": "LAPAN-A3", "OBJECT_ID": "2016-040E", "EPOCH": "2025-12-21T12:21:28.120320", "MEAN_MOTION": 15.31617339, "ECCENTRICITY": 0.0008863, "INCLINATION": 97.1426, "RA_OF_ASC_NODE": 352.7519, "ARG_OF_PERICENTER": 298.091, "MEAN_ANOMALY": 61.9436, "EPHEMERIS_TYPE": 0, "CLASSIFICATION_TYPE": "U", "NORAD_CAT_ID": 41603, "ELEMENT_SET_NO": 999, "REV_AT_EPOCH": 52760, "BSTAR": 0.000114, "MEAN_MOTION_DOT": 3.409e-05, "MEAN_MOTION_DDOT": 0}, "tle": {"line1": "1 41603U 16040E   25355.51490880  .00003409  00000+0  11400-3 0  9994", "line2": "2 41603  97.1426 352.7519 0008863 298.0910  61.9436 15.31617339527609"}}, "geometry": {"type": "Point", "coordinates": [5.327954089697286, -59.71163323224448]}}, {"type": "Feature", "properties": {"norad_id": 41604, "name": "BIROS", "group": "resource", "lat": -69.00852122991907, "lon": -171.3560313985004, "alt_km": 302.23778041388323, "timestamp": "2025-12-21T16:47:54.386187+00:00", "meta": {"OBJECT_NAME": "BIROS", "OBJECT_ID": "2016-040F", "EPOCH": "2025-12-21T00:40:29.532576", "MEAN_MOTION": 15.92820677, "ECCENTRICITY": 0.00037085, "INCLINATION": 97.0689, "RA_OF_ASC_NODE": 26.8121, "ARG_OF_PERICENTER": 133.4081, "MEAN_ANOMALY": 226.7504, "EPHEMERIS_TYPE": 0, "CLASSIFICATION_TYPE": "U", "NORAD_CAT_ID": 41604, "ELEMENT_SET_NO": 999, "REV_AT_EPOCH": 53004, "BSTAR": 0.00051492224, "MEAN_MOTION_DOT": 0.00176298, "MEAN_MOTION_DDOT": 1.357037e-05}, "tle": {"line1": "1 41604U 16040F   25355.02811959  .00176298  13570-4  51492-3 0  9998", "line2": "2 41604  97.0689  26.8121 0003708 133.4081 226.7504 15.92820677530049"}}, "geometry": {"type": "Point", "coordinates": [-171.3560313985004, -69.00852122991907]}}, {"type": "Feature", "properties": {"norad_id": 41727, "name": "GAOFEN-3", "group": "resource", "lat": 76.2199330595443, "lon": -35.91504211904723, "alt_km": 743.1480350762658, "timestamp": "2025-12-21T16:47:54.386201+00:00", "meta": {"OBJECT_NAME": "GAOFEN-3", "OBJECT_ID": "2016-049A", "EPOCH": "2025-12-21T13:06:11.676672", "MEAN_MOTION": 14.42216225, "ECCENTRICITY": 0.0001245, "INCLINATION": 98.4031, "RA_OF_ASC_NODE": 0.9979, "ARG_OF_PERICENTER": 56.4242, "MEAN_ANOMALY": 303.7066, "EPHEMERIS_TYPE": 0, "CLASSIFICATION_TYPE": "U", "NORAD_CAT_ID": 41727, "ELEMENT_SET_NO": 999, "REV_AT_EPOCH": 49304, "BSTAR": 6.827e-05, "MEAN_MOTION_DOT": 1.81e-06, "MEAN_MOTION_DDOT": 0}, "tle": {"line1": "1 41727U 16049A   25355.54596848  .00000181  00000+0  68270-4 0  9996", "line2": "2 41727  98.4031   0.9979 0001245  56.4242 303.7066 14.42216225493041"}}, "geometry": {"type": "Point", "coordinates": [-35.91504211904723, 76.2199330595443]}}, {"type": "Feature", "properties": {"norad_id": 41771, "name": "SKYSAT-C4", "group": "resource", "lat": 76.42303878508567, "lon": -9.818704233464192, "alt_km": 430.5672413916582, "timestamp": "2025-12-21T16:47:54.386223+00:00", "meta": {"OBJECT_NAME": "SKYSAT-C4", "OBJECT_ID": "2016-058B", "EPOCH": "2025-12-21T00:53:26.065536", "MEAN_MOTION": 15.42468252, "ECCENTRICITY": 0.00022314, "INCLINATION": 96.9361, "RA_OF_ASC_NODE": 19.8219, "ARG_OF_PERICENTER": 128.0072, "MEAN_ANOMALY": 232.1378, "EPHEMERIS_TYPE": 0, "CLASSIFICATION_TYPE": "U", "NORAD_CAT_ID": 41771, "ELEMENT_SET_NO": 999, "REV_AT_EPOCH": 51795, "BSTAR": 0.00024326235, "MEAN_MOTION_DOT": 0.00010455, "MEAN_MOTION_DDOT": 0}, "tle": {"line1": "1 41771U 16058B   25355.03710724  .00010455  00000+0  24326-3 0  9998", "line2": "2 41771  96.9361  19.8219 0002231 128.0072 232.1378 15.42468252517956"}}, "geometry": {"type": "Point", "coordinates": [-9.818704233464192, 76.42303878508567]}}, {"type": "Feature", "properties": {"norad_id": 41772, "name": "SKYSAT-C5", "group": "resource", "lat": 81.981246063297, "lon": -22.754681334400797, "alt_km": 458.8619248627274, "timestamp": "2025-12-21T16:47:54.386244+00:00", "meta": {"OBJECT_NAME": "SKYSAT-C5", "OBJECT_ID": "2016-058C", "EPOCH": "2025-12-21T08:35:45.854304", "MEAN_MOTION": 15.34018563, "ECCENTRICITY": 0.0003791, "INCLINATION": 97.0744, "RA_OF_ASC_NODE": 38.7499, "ARG_OF_PERICENTER": 250.3825, "MEAN_ANOMALY": 109.7009, "EPHEMERIS_TYPE": 0, "CLASSIFICATION_TYPE": "U", "NORAD_CAT_ID": 41772, "ELEMENT_SET_NO": 999, "REV_AT_EPOCH": 51648, "BSTAR": 0.00022523, "MEAN_MOTION_DOT": 7.34e-05, "MEAN_MOTION_DDOT": 0}, "tle": {"line1": "1 41772U 16058C   25355.35816961  .00007340  00000+0  22523-3 0  9990", "line2": "2 41772  97.0744  38.7499 0003791 250.3825 109.7009 15.34018563516485"}}, "geometry": {"type": "Point", "coordinates": [-22.754681334400797, 81.981246063297]}}, {"type": "Feature", "properties": {"norad_id": 41773, "name": "SKYSAT-C2", "group": "resource", "lat": -21.87453214332085, "lon": -162.99436303740123, "alt_km": 461.2989208499548, "timestamp": "2025-12-21T16:47:54.386269+00:00", "meta": {"OBJECT_NAME": "SKYSAT-C2", "OBJECT_ID": "2016-058D", "EPOCH": "2025-12-21T01:51:51.666048", "MEAN_MOTION": 15.37443909, "ECCENTRICITY": 0.00032987, "INCLINATION": 97.0347, "RA_OF_ASC_NODE": 19.2514, "ARG_OF_PERICENTER": 10.7695, "MEAN_ANOMALY": 349.3621, "EPHEMERIS_TYPE": 0, "CLASSIFICATION_TYPE": "U", "NORAD_CAT_ID": 41773, "ELEMENT_SET_NO": 999, "REV_AT_EPOCH": 51764, "BSTAR": 0.00022753944, "MEAN_MOTION_DOT": 8.279e-05, "MEAN_MOTION_DDOT": 0}, "tle": {"line1": "1 41773U 16058D   25355.07768132  .00008279  00000+0  22754-3 0  9994", "line2": "2 41773  97.0347  19.2514 0003298  10.7695 349.3621 15.37443909517642"}}, "geometry": {"type": "Point", "coordinates": [-162.99436303740123, -21.87453214332085]}}, {"type": "Feature", "properties": {"norad_id": 41774, "name": "SKYSAT-C3", "group": "resource", "lat": -79.30772277571953, "lon": 168.93474451258402, "alt_km": 440.90330376163456, "timestamp": "2025-12-21T16:47:54.386286+00:00", "meta": {"OBJECT_NAME": "SKYSAT-C3", "OBJECT_ID": "2016-058E", "EPOCH": "2025-12-20T08:34:23.687904", "MEAN_MOTION": 15.44652608, "ECCENTRICITY": 0.0001932, "INCLINATION": 96.9286, "RA_OF_ASC_NODE": 27.7493, "ARG_OF_PERICENTER": 107.595, "MEAN_ANOMALY": 252.5511, "EPHEMERIS_TYPE": 0, "CLASSIFICATION_TYPE": "U", "NORAD_CAT_ID": 41774, "ELEMENT_SET_NO": 999, "REV_AT_EPOCH": 51843, "BSTAR": 0.0002841356, "MEAN_MOTION_DOT": 0.00013163, "MEAN_MOTION_DDOT": 0}, "tle": {"line1": "1 41774U 16058E   25354.35721861  .00013163  00000+0  28414-3 0  9990", "line2": "2 41774  96.9286  27.7493 0001932 107.5950 252.5511 15.44652608518432"}}, "geometry": {"type": "Point", "coordinates": [168.93474451258402, -79.30772277571953]}}]}